{"type":"FeatureCollection", "features": [
{"type":"Feature","geometry":{"type":"Polygon","coordinates":[[[-66.628,-9.925],[-66.829,-9.838],[-69.806,-8.454],[-70.373,-8.155],[-72.664,-7.593],[-73.797,-7.117],[-73.749,-7.335],[-74.002,-7.556],[-73.72,-7.783],[-73.776,-7.936],[-73.549,-8.346],[-72.974,-8.993],[-73.209,-9.411],[-72.814,-9.41],[-72.379,-9.51],[-72.182,-10.004],[-71.238,-9.966],[-70.637,-9.478],[-70.642,-11.01],[-70.22,-11.048],[-69.96,-10.93],[-68.848,-11.011],[-68.728,-11.122],[-68.398,-11.019],[-68.072,-10.703],[-67.722,-10.683],[-67.582,-10.506],[-67.111,-10.269],[-66.628,-9.925]]]},"properties":{"code":"BR-AC","name":"Acre","country":"BRA"}},
{"type":"Feature","geometry":{"type":"Polygon","coordinates":[[[-66.628,-9.925],[-66.264,-9.826],[-65.396,-9.712],[-65.313,-10.253],[-65.437,-10.449],[-65.334,-10.893],[-65.39,-11.246],[-64.993,-11.975],[-64.513,-12.251],[-64.42,-12.44],[-63.938,-12.53],[-63.586,-12.519],[-63.347,-12.68],[-63.067,-12.669],[-62.766,-12.997],[-62.176,-13.134],[-61.79,-13.526],[-61.077,-13.49],[-60.725,-13.663],[-60.382,-13.419],[-60.271,-13.07],[-60.083,-12.927],[-59.824,-12.387],[-60.061,-11.905],[-60.101,-11.601],[-59.909,-11.383],[-60.003,-11.146],[-60.44,-11.003],[-61.472,-10.999],[-61.472,-10.436],[-61.565,-10.262],[-61.481,-9.637],[-61.61,-9.32],[-61.485,-8.914],[-61.61,-8.767],[-61.873,-8.856],[-62.132,-8.767],[-62.373,-8.383],[-62.539,-8.361],[-62.721,-8.061],[-63.538,-7.999],[-63.592,-8.164],[-63.918,-8.334],[-64.119,-8.936],[-64.78,-8.985],[-65.038,-9.401],[-65.222,-9.258],[-65.766,-9.566],[-65.931,-9.414],[-66.396,-9.405],[-66.503,-9.633],[-66.829,-9.838],[-66.628,-9.925]]]},"properties":{"code":"BR-RO","name":"Rondônia","country":"BRA"}},
{"type":"Feature","geometry":{"type":"Polygon","coordinates":[[[-58.869,0.224],[-58.966,1.302],[-59.231,1.376],[-59.756,1.901],[-59.755,2.274],[-59.994,2.69],[-59.831,3.349],[-59.854,3.588],[-59.551,3.934],[-59.833,4.476],[-60.111,4.511],[-59.991,5.083],[-60.142,5.239],[-60.672,5.164],[-60.604,4.995],[-61.003,4.535],[-61.28,4.517],[-61.554,4.288],[-62.153,4.098],[-62.411,4.157],[-62.712,4.018],[-62.765,3.673],[-62.969,3.594],[-63.295,3.922],[-64.021,3.929],[-64.256,4.14],[-64.576,4.14],[-64.568,3.9],[-64.221,3.587],[-64.219,3.205],[-63.924,2.452],[-63.389,2.412],[-63.394,2.224],[-62.708,1.948],[-62.788,1.604],[-62.623,1.416],[-62.445,0.805],[-62.57,0.247],[-62.57,-0.048],[-62.373,-0.343],[-62.311,-0.642],[-62.418,-0.829],[-62.03,-1.146],[-61.878,-1.369],[-61.62,-1.449],[-61.534,-0.727],[-61.105,-0.494],[-60.931,-0.557],[-60.735,-0.852],[-60.338,-0.704],[-60.311,-0.235],[-60.025,0.224],[-58.869,0.224]]]},"properties":{"code":"BR-RR","name":"Roraima","country":"BRA"}},
{"type":"Feature","geometry":{"type":"Polygon","coordinates":[[[-66.829,-9.838],[-66.503,-9.633],[-66.396,-9.405],[-65.931,-9.414],[-65.766,-9.566],[-65.222,-9.258],[-65.038,-9.401],[-64.78,-8.985],[-64.119,-8.936],[-63.918,-8.334],[-63.592,-8.164],[-63.538,-7.999],[-62.721,-8.061],[-62.539,-8.361],[-62.373,-8.383],[-62.132,-8.767],[-61.873,-8.856],[-61.61,-8.767],[-58.547,-8.749],[-58.354,-8.276],[-58.33,-7.78],[-58.137,-7.338],[-58.386,-6.949],[-58.437,-6.676],[-58.293,-6.499],[-56.757,-3.186],[-56.391,-2.392],[-56.498,-2.16],[-57.007,-1.936],[-57.088,-1.811],[-57.655,-1.588],[-58.391,-1.048],[-58.44,-0.86],[-58.748,-0.624],[-58.855,-0.351],[-58.869,0.224],[-60.025,0.224],[-60.311,-0.235],[-60.338,-0.704],[-60.735,-0.852],[-60.931,-0.557],[-61.105,-0.494],[-61.534,-0.727],[-61.62,-1.449],[-61.878,-1.369],[-62.03,-1.146],[-62.418,-0.829],[-62.311,-0.642],[-62.373,-0.343],[-62.57,-0.048],[-62.57,0.247],[-62.445,0.805],[-62.623,1.416],[-62.788,1.604],[-62.708,1.948],[-63.394,2.224],[-64.035,1.904],[-64.115,1.619],[-64.732,1.253],[-65.104,1.108],[-65.361,0.869],[-65.682,0.983],[-66.06,0.785],[-66.429,0.822],[-66.876,1.223],[-67.094,1.21],[-67.09,1.616],[-67.352,2.086],[-67.5,2.108],[-67.815,1.79],[-68.177,1.72],[-69.849,1.709],[-69.852,1.059],[-69.361,1.064],[-69.163,0.864],[-70.054,0.579],[-70.071,-0.139],[-69.667,-0.482],[-69.4,-1.195],[-69.733,-3.017],[-69.972,-4.301],[-70.239,-4.301],[-70.405,-4.15],[-70.8,-4.173],[-70.974,-4.35],[-71.845,-4.504],[-72.699,-5.067],[-72.887,-5.123],[-72.98,-5.635],[-73.235,-6.098],[-73.137,-6.466],[-73.758,-6.906],[-73.797,-7.117],[-72.664,-7.593],[-70.373,-8.155],[-69.806,-8.454],[-66.829,-9.838]]]},"properties":{"code":"BR-AM","name":"Amazonas","country":"BRA"}},
{"type":"Feature","geometry":{"type":"MultiPolygon","coordinates":[[[[-58.869,0.224],[-58.855,-0.351],[-58.748,-0.624],[-58.44,-0.86],[-58.391,-1.048],[-57.655,-1.588],[-57.088,-1.811],[-57.007,-1.936],[-56.498,-2.16],[-56.391,-2.392],[-56.757,-3.186],[-58.293,-6.499],[-58.437,-6.676],[-58.386,-6.949],[-58.137,-7.338],[-57.896,-7.691],[-57.641,-8.231],[-57.579,-8.758],[-57.101,-9.052],[-57.047,-9.231],[-56.463,-9.468],[-55.092,-9.566],[-51.298,-9.789],[-50.235,-9.843],[-49.979,-9.22],[-49.503,-8.709],[-49.283,-8.301],[-49.172,-7.867],[-49.34,-7.51],[-49.079,-6.856],[-48.653,-6.596],[-48.254,-5.945],[-48.193,-5.565],[-48.422,-5.398],[-48.722,-5.355],[-47.802,-4.597],[-47.655,-4.606],[-47.065,-3.843],[-46.945,-3.396],[-46.668,-3.093],[-46.668,-2.74],[-46.427,-2.512],[-46.213,-1.927],[-46.141,-1.24],[-46.007,-1.147],[-46.617,-0.971],[-46.811,-0.78],[-47.398,-0.627],[-48.115,-0.738],[-48.45,-1.146],[-48.446,-1.52],[-48.71,-1.488],[-48.991,-1.83],[-49.314,-1.732],[-49.72,-1.926],[-49.999,-1.832],[-50.403,-2.016],[-50.69,-1.762],[-50.918,-1.115],[-51.297,-1.224],[-51.948,-1.587],[-51.888,-1.16],[-52.239,-1.146],[-52.516,-0.874],[-52.628,-0.396],[-52.913,-0.191],[-53.128,0.385],[-53.114,0.72],[-53.418,0.943],[-53.556,1.367],[-53.891,1.407],[-54.364,1.76],[-54.735,1.773],[-54.793,2.01],[-54.715,2.425],[-55.006,2.593],[-55.385,2.441],[-55.73,2.406],[-55.936,2.517],[-56.129,2.299],[-55.915,2.04],[-56.02,1.842],[-56.483,1.942],[-56.837,1.881],[-57.119,2.014],[-57.413,1.909],[-57.594,1.704],[-58.341,1.588],[-58.512,1.285],[-58.862,1.204],[-58.966,1.302],[-58.869,0.224]]],[[[-51.424,-0.566],[-51.678,-0.855],[-51.638,-1.342],[-51.276,-1.022],[-51.161,-0.667],[-51.424,-0.566]]],[[[-48.445,-0.272],[-49.117,-0.164],[-49.629,-0.229],[-50.248,-0.116],[-50.645,-0.273],[-50.771,-0.645],[-50.76,-1.24],[-50.508,-1.788],[-50.01,-1.708],[-49.588,-1.712],[-49.507,-1.512],[-49.234,-1.6],[-48.929,-1.482],[-48.54,-0.801],[-48.445,-0.272]]],[[[-49.879,0.305],[-50.273,0.232],[-50.339,0.043],[-49.839,0.007],[-49.879,0.305]]]]},"properties":{"code":"BR-PA","name":"Pará","country":"BRA"}},
{"type":"Feature","geometry":{"type":"Polygon","coordinates":[[[-50.964,-19.511],[-51.137,-19.285],[-51.641,-19.128],[-52.498,-18.704],[-52.891,-18.637],[-52.784,-18.392],[-53.056,-18.294],[-53.052,-18.017],[-53.726,-18.008],[-53.989,-17.901],[-53.753,-17.642],[-53.82,-17.307],[-54.146,-17.628],[-54.525,-17.512],[-55.181,-17.686],[-56.101,-17.186],[-56.745,-17.317],[-57.08,-17.734],[-57.472,-17.901],[-57.753,-17.735],[-57.574,-18.279],[-57.8,-19.081],[-58.131,-19.744],[-57.861,-19.98],[-58.16,-20.165],[-57.83,-20.998],[-57.986,-22.046],[-57.82,-22.142],[-56.937,-22.271],[-56.524,-22.102],[-56.19,-22.281],[-55.849,-22.308],[-55.618,-22.671],[-55.654,-22.81],[-55.366,-23.991],[-54.983,-23.974],[-54.625,-23.812],[-54.243,-24.047],[-53.995,-23.57],[-53.481,-22.852],[-53.116,-22.64],[-52.961,-22.455],[-52.402,-22.069],[-51.955,-21.47],[-51.866,-21.183],[-51.534,-20.558],[-50.994,-20.102],[-50.964,-19.511]]]},"properties":{"code":"BR-MS","name":"Mato Grosso do Sul","country":"BRA"}},
{"type":"Feature","geometry":{"type":"Polygon","coordinates":[[[-51.888,-1.16],[-51.721,-1.018],[-51.703,-0.762],[-51.404,-0.393],[-51.283,-0.085],[-50.816,0.173],[-50.294,0.836],[-49.899,1.163],[-49.957,1.66],[-50.459,1.83],[-50.659,2.131],[-51.052,3.282],[-51.076,3.672],[-51.22,4.094],[-51.462,4.314],[-51.991,3.702],[-52.701,2.364],[-52.965,2.184],[-53.509,2.253],[-53.768,2.355],[-54.13,2.121],[-54.515,2.245],[-54.715,2.425],[-54.793,2.01],[-54.735,1.773],[-54.364,1.76],[-53.891,1.407],[-53.556,1.367],[-53.418,0.943],[-53.114,0.72],[-53.128,0.385],[-52.913,-0.191],[-52.628,-0.396],[-52.516,-0.874],[-52.239,-1.146],[-51.888,-1.16]]]},"properties":{"code":"BR-AP","name":"Amapá","country":"BRA"}},
{"type":"Feature","geometry":{"type":"Polygon","coordinates":[[[-60.725,-13.663],[-60.507,-13.79],[-60.475,-14.185],[-60.299,-14.619],[-60.273,-15.089],[-60.53,-15.143],[-60.242,-15.48],[-60.176,-16.269],[-58.538,-16.328],[-58.396,-17.234],[-57.753,-17.735],[-57.472,-17.901],[-57.08,-17.734],[-56.745,-17.317],[-56.101,-17.186],[-55.181,-17.686],[-54.525,-17.512],[-54.146,-17.628],[-53.82,-17.307],[-53.753,-17.642],[-53.989,-17.901],[-53.726,-18.008],[-53.052,-18.017],[-53.211,-17.409],[-53.024,-16.91],[-52.614,-16.428],[-52.668,-16.289],[-52.257,-15.936],[-51.847,-15.747],[-51.59,-15.141],[-51.189,-14.976],[-50.868,-14.095],[-50.8,-13.612],[-50.598,-13.249],[-50.485,-12.843],[-50.655,-12.667],[-50.632,-12.289],[-50.708,-11.346],[-50.599,-10.69],[-50.235,-9.843],[-51.298,-9.789],[-55.092,-9.566],[-56.463,-9.468],[-57.047,-9.231],[-57.101,-9.052],[-57.579,-8.758],[-57.641,-8.231],[-57.896,-7.691],[-58.137,-7.338],[-58.33,-7.78],[-58.354,-8.276],[-58.547,-8.749],[-61.61,-8.767],[-61.485,-8.914],[-61.61,-9.32],[-61.481,-9.637],[-61.565,-10.262],[-61.472,-10.436],[-61.472,-10.999],[-60.44,-11.003],[-60.003,-11.146],[-59.909,-11.383],[-60.101,-11.601],[-60.061,-11.905],[-59.824,-12.387],[-60.083,-12.927],[-60.271,-13.07],[-60.382,-13.419],[-60.725,-13.663]]]},"properties":{"code":"BR-MT","name":"Mato Grosso","country":"BRA"}},
{"type":"Feature","geometry":{"type":"Polygon","coordinates":[[[-54.243,-24.047],[-54.473,-25.22],[-54.611,-25.433],[-54.444,-25.625],[-54.155,-25.523],[-53.891,-25.669],[-53.67,-26.258],[-53.355,-26.24],[-53.123,-26.37],[-52.815,-26.338],[-52.199,-26.45],[-52.007,-26.584],[-51.239,-26.606],[-51.289,-26.423],[-51.074,-26.236],[-50.735,-26.231],[-50.646,-26.07],[-49.949,-26.012],[-49.597,-26.222],[-49.11,-25.995],[-48.585,-25.986],[-48.401,-25.597],[-48.402,-25.272],[-48.078,-25.29],[-48.614,-24.682],[-49.217,-24.691],[-49.239,-24.419],[-49.601,-23.865],[-49.637,-23.258],[-49.972,-22.914],[-50.784,-22.945],[-50.882,-22.82],[-51.355,-22.651],[-51.547,-22.686],[-52.065,-22.521],[-52.217,-22.642],[-52.614,-22.57],[-53.116,-22.64],[-53.481,-22.852],[-53.995,-23.57],[-54.243,-24.047]]]},"properties":{"code":"BR-PR","name":"Paraná","country":"BRA"}},
{"type":"Feature","geometry":{"type":"Polygon","coordinates":[[[-47.302,-16.039],[-47.306,-15.588],[-47.422,-15.499],[-48.181,-15.49],[-48.253,-16.03],[-47.302,-16.039]]]},"properties":{"code":"BR-DF","name":"Distrito Federal","country":"BRA"}},
{"type":"Feature","geometry":{"type":"Polygon","coordinates":[[[-50.964,-19.511],[-50.713,-19.161],[-50.532,-19.087],[-50.368,-18.769],[-49.553,-18.51],[-49.337,-18.585],[-48.954,-18.326],[-48.227,-18.34],[-47.929,-18.445],[-47.279,-18.061],[-47.288,-17.548],[-47.498,-17.329],[-47.15,-16.977],[-47.266,-16.66],[-47.454,-16.494],[-47.302,-16.039],[-48.253,-16.03],[-48.181,-15.49],[-47.422,-15.499],[-47.306,-15.588],[-47.302,-16.039],[-46.864,-15.883],[-46.936,-15.432],[-46.891,-15.048],[-46.547,-15.039],[-46.025,-14.869],[-45.913,-14.691],[-45.922,-14.352],[-46.128,-14.182],[-46.271,-13.655],[-46.088,-12.914],[-46.235,-12.798],[-46.646,-12.923],[-47.681,-13.356],[-48.175,-13.181],[-48.654,-13.177],[-48.824,-12.874],[-49.137,-12.736],[-49.382,-13.249],[-49.686,-13.177],[-50.485,-12.843],[-50.598,-13.249],[-50.8,-13.612],[-50.868,-14.095],[-51.189,-14.976],[-51.59,-15.141],[-51.847,-15.747],[-52.257,-15.936],[-52.668,-16.289],[-52.614,-16.428],[-53.024,-16.91],[-53.211,-17.409],[-53.052,-18.017],[-53.056,-18.294],[-52.784,-18.392],[-52.891,-18.637],[-52.498,-18.704],[-51.641,-19.128],[-51.137,-19.285],[-50.964,-19.511]]]},"properties":{"code":"BR-GO","name":"Goiás","country":"BRA"}},
{"type":"Feature","geometry":{"type":"Polygon","coordinates":[[[-50.235,-9.843],[-50.599,-10.69],[-50.708,-11.346],[-50.632,-12.289],[-50.655,-12.667],[-50.485,-12.843],[-49.686,-13.177],[-49.382,-13.249],[-49.137,-12.736],[-48.824,-12.874],[-48.654,-13.177],[-48.175,-13.181],[-47.681,-13.356],[-46.646,-12.923],[-46.235,-12.798],[-46.159,-12.503],[-46.315,-12.423],[-46.338,-12.128],[-46.079,-11.928],[-46.57,-11.316],[-46.302,-10.758],[-45.757,-10.329],[-45.945,-10.316],[-46.347,-10.168],[-46.507,-9.856],[-46.534,-9.557],[-46.753,-9.41],[-47.065,-8.977],[-46.905,-8.829],[-46.793,-8.436],[-46.503,-8.396],[-46.467,-8.07],[-46.574,-7.905],[-47.016,-8.044],[-47.717,-7.222],[-47.537,-7.027],[-47.405,-6.421],[-47.397,-6.072],[-47.486,-5.561],[-47.953,-5.256],[-48.378,-5.169],[-48.722,-5.355],[-48.422,-5.398],[-48.193,-5.565],[-48.254,-5.945],[-48.653,-6.596],[-49.079,-6.856],[-49.34,-7.51],[-49.172,-7.867],[-49.283,-8.301],[-49.503,-8.709],[-49.979,-9.22],[-50.235,-9.843]]]},"properties":{"code":"BR-TO","name":"Tocantins","country":"BRA"}},
{"type":"Feature","geometry":{"type":"Polygon","coordinates":[[[-53.116,-22.64],[-52.614,-22.57],[-52.217,-22.642],[-52.065,-22.521],[-51.547,-22.686],[-51.355,-22.651],[-50.882,-22.82],[-50.784,-22.945],[-49.972,-22.914],[-49.637,-23.258],[-49.601,-23.865],[-49.239,-24.419],[-49.217,-24.691],[-48.614,-24.682],[-48.078,-25.29],[-47.877,-24.998],[-47.137,-24.493],[-46.867,-24.236],[-45.972,-23.796],[-45.423,-23.685],[-44.783,-23.354],[-44.797,-22.99],[-44.275,-22.82],[-44.217,-22.593],[-44.637,-22.602],[-44.833,-22.405],[-45.409,-22.646],[-45.672,-22.62],[-45.793,-22.852],[-46.289,-22.883],[-46.454,-22.517],[-46.699,-22.32],[-46.601,-22.133],[-46.668,-21.812],[-46.507,-21.459],[-46.994,-21.343],[-47.213,-20.807],[-47.11,-20.633],[-47.293,-20.423],[-47.244,-20.174],[-47.46,-20.001],[-48.051,-20.12],[-48.812,-20.159],[-49.2,-20.294],[-49.278,-19.987],[-50.584,-19.821],[-50.994,-20.102],[-51.534,-20.558],[-51.866,-21.183],[-51.955,-21.47],[-52.402,-22.069],[-52.961,-22.455],[-53.116,-22.64]]]},"properties":{"code":"BR-SP","name":"São Paulo","country":"BRA"}},
{"type":"Feature","geometry":{"type":"Polygon","coordinates":[[[-48.722,-5.355],[-48.378,-5.169],[-47.953,-5.256],[-47.486,-5.561],[-47.397,-6.072],[-47.405,-6.421],[-47.537,-7.027],[-47.717,-7.222],[-47.016,-8.044],[-46.574,-7.905],[-46.467,-8.07],[-46.503,-8.396],[-46.793,-8.436],[-46.905,-8.829],[-47.065,-8.977],[-46.753,-9.41],[-46.534,-9.557],[-46.507,-9.856],[-46.347,-10.168],[-45.945,-10.316],[-45.838,-9.535],[-45.981,-8.928],[-45.579,-8.151],[-45.472,-7.673],[-45.297,-7.557],[-44.713,-7.396],[-44.306,-7.111],[-44.039,-6.767],[-43.677,-6.7],[-43.463,-6.843],[-42.98,-6.744],[-42.851,-6.253],[-43.074,-6.057],[-43.11,-5.771],[-42.833,-5.311],[-42.954,-4.776],[-42.864,-4.499],[-42.989,-4.24],[-42.663,-3.789],[-42.503,-3.45],[-42.217,-3.432],[-41.842,-3.035],[-41.846,-2.759],[-42.25,-2.792],[-42.937,-2.465],[-43.38,-2.376],[-43.455,-2.502],[-43.933,-2.583],[-44.308,-2.535],[-44.437,-2.944],[-44.721,-3.142],[-44.52,-2.406],[-44.382,-2.365],[-44.651,-1.746],[-45.076,-1.466],[-45.282,-1.697],[-45.459,-1.356],[-46.007,-1.147],[-46.141,-1.24],[-46.213,-1.927],[-46.427,-2.512],[-46.668,-2.74],[-46.668,-3.093],[-46.945,-3.396],[-47.065,-3.843],[-47.655,-4.606],[-47.802,-4.597],[-48.722,-5.355]]]},"properties":{"code":"BR-MA","name":"Maranhão","country":"BRA"}},
{"type":"Feature","geometry":{"type":"Polygon","coordinates":[[[-44.783,-23.354],[-44.637,-23.056],[-43.866,-22.91],[-43.533,-23.046],[-42.958,-22.967],[-42.042,-22.947],[-41.98,-22.581],[-41.706,-22.31],[-41.123,-22.084],[-40.988,-21.92],[-41.047,-21.506],[-40.968,-21.276],[-41.713,-21.11],[-41.864,-20.776],[-42.097,-21.003],[-42.369,-21.633],[-42.28,-21.713],[-43.063,-22.064],[-43.342,-22.003],[-43.815,-22.066],[-44.217,-22.249],[-44.833,-22.405],[-44.637,-22.602],[-44.217,-22.593],[-44.275,-22.82],[-44.797,-22.99],[-44.783,-23.354]]]},"properties":{"code":"BR-RJ","name":"Rio de Janeiro","country":"BRA"}},
{"type":"Feature","geometry":{"type":"Polygon","coordinates":[[[-45.757,-10.329],[-45.605,-10.334],[-45.315,-10.78],[-45.043,-10.896],[-44.784,-10.856],[-44.539,-10.628],[-44.217,-10.628],[-43.913,-10.432],[-43.704,-10.035],[-43.681,-9.802],[-43.811,-9.428],[-43.449,-9.302],[-42.619,-9.566],[-42.311,-9.307],[-41.851,-9.253],[-41.735,-8.981],[-41.498,-8.936],[-41.369,-8.713],[-40.922,-8.432],[-40.592,-8.124],[-40.547,-7.834],[-40.69,-7.428],[-40.538,-7.392],[-40.583,-7.195],[-40.418,-6.811],[-40.708,-6.66],[-40.891,-6.012],[-40.949,-5.418],[-41.186,-4.914],[-41.235,-4.539],[-41.074,-4.325],[-41.449,-3.436],[-41.269,-2.916],[-41.64,-2.879],[-41.846,-2.759],[-41.842,-3.035],[-42.217,-3.432],[-42.503,-3.45],[-42.663,-3.789],[-42.989,-4.24],[-42.864,-4.499],[-42.954,-4.776],[-42.833,-5.311],[-43.11,-5.771],[-43.074,-6.057],[-42.851,-6.253],[-42.98,-6.744],[-43.463,-6.843],[-43.677,-6.7],[-44.039,-6.767],[-44.306,-7.111],[-44.713,-7.396],[-45.297,-7.557],[-45.472,-7.673],[-45.579,-8.151],[-45.981,-8.928],[-45.838,-9.535],[-45.945,-10.316],[-45.757,-10.329]]]},"properties":{"code":"BR-PI","name":"Piauí","country":"BRA"}},
{"type":"Feature","geometry":{"type":"Polygon","coordinates":[[[-50.994,-20.102],[-50.584,-19.821],[-49.278,-19.987],[-49.2,-20.294],[-48.812,-20.159],[-48.051,-20.12],[-47.46,-20.001],[-47.244,-20.174],[-47.293,-20.423],[-47.11,-20.633],[-47.213,-20.807],[-46.994,-21.343],[-46.507,-21.459],[-46.668,-21.812],[-46.601,-22.133],[-46.699,-22.32],[-46.454,-22.517],[-46.289,-22.883],[-45.793,-22.852],[-45.672,-22.62],[-45.409,-22.646],[-44.833,-22.405],[-44.217,-22.249],[-43.815,-22.066],[-43.342,-22.003],[-43.063,-22.064],[-42.28,-21.713],[-42.369,-21.633],[-42.097,-21.003],[-41.864,-20.776],[-41.717,-20.209],[-41.404,-20.213],[-41.159,-19.66],[-40.958,-19.472],[-40.945,-19.146],[-41.092,-18.829],[-41.003,-18.454],[-41.141,-18.298],[-40.909,-17.972],[-40.427,-17.892],[-40.208,-17.977],[-40.208,-17.767],[-40.61,-17.392],[-40.525,-16.932],[-40.297,-16.878],[-40.253,-16.566],[-39.94,-16.311],[-39.864,-16.111],[-40.235,-15.82],[-40.945,-15.673],[-41.333,-15.718],[-41.36,-15.494],[-41.802,-15.111],[-42.088,-15.182],[-42.632,-14.941],[-42.954,-14.677],[-43.23,-14.637],[-43.494,-14.789],[-43.879,-14.625],[-43.838,-14.316],[-44.32,-14.244],[-45.927,-15.128],[-46.025,-14.869],[-46.547,-15.039],[-46.891,-15.048],[-46.936,-15.432],[-46.864,-15.883],[-47.302,-16.039],[-47.454,-16.494],[-47.266,-16.66],[-47.15,-16.977],[-47.498,-17.329],[-47.288,-17.548],[-47.279,-18.061],[-47.929,-18.445],[-48.227,-18.34],[-48.954,-18.326],[-49.337,-18.585],[-49.553,-18.51],[-50.368,-18.769],[-50.532,-19.087],[-50.713,-19.161],[-50.964,-19.511],[-50.994,-20.102]]]},"properties":{"code":"BR-MG","name":"Minas Gerais","country":"BRA"}},
{"type":"Feature","geometry":{"type":"Polygon","coordinates":[[[-40.968,-21.276],[-40.789,-20.906],[-40.396,-20.57],[-40.001,-19.742],[-39.845,-19.649],[-39.7,-19.278],[-39.74,-18.64],[-39.668,-18.326],[-40.208,-17.977],[-40.427,-17.892],[-40.909,-17.972],[-41.141,-18.298],[-41.003,-18.454],[-41.092,-18.829],[-40.945,-19.146],[-40.958,-19.472],[-41.159,-19.66],[-41.404,-20.213],[-41.717,-20.209],[-41.864,-20.776],[-41.713,-21.11],[-40.968,-21.276]]]},"properties":{"code":"BR-ES","name":"Espírito Santo","country":"BRA"}},
{"type":"Feature","geometry":{"type":"Polygon","coordinates":[[[-46.025,-14.869],[-45.927,-15.128],[-44.32,-14.244],[-43.838,-14.316],[-43.879,-14.625],[-43.494,-14.789],[-43.23,-14.637],[-42.954,-14.677],[-42.632,-14.941],[-42.088,-15.182],[-41.802,-15.111],[-41.36,-15.494],[-41.333,-15.718],[-40.945,-15.673],[-40.235,-15.82],[-39.864,-16.111],[-39.94,-16.311],[-40.253,-16.566],[-40.297,-16.878],[-40.525,-16.932],[-40.61,-17.392],[-40.208,-17.767],[-40.208,-17.977],[-39.668,-18.326],[-39.487,-17.99],[-39.154,-17.704],[-39.215,-17.316],[-39.125,-16.764],[-38.881,-15.864],[-39.06,-14.655],[-38.942,-14.031],[-39.089,-13.588],[-38.835,-13.147],[-38.788,-12.783],[-38.24,-12.844],[-37.689,-12.1],[-37.412,-11.497],[-37.797,-11.526],[-38.235,-10.896],[-38.19,-10.718],[-37.815,-10.677],[-37.78,-10.079],[-37.963,-9.874],[-37.976,-9.512],[-38.221,-9.348],[-38.336,-9.01],[-39.442,-8.559],[-39.835,-8.809],[-39.949,-9.022],[-40.273,-9.145],[-40.413,-9.397],[-40.686,-9.472],[-40.851,-9.151],[-40.891,-8.856],[-41.369,-8.713],[-41.498,-8.936],[-41.735,-8.981],[-41.851,-9.253],[-42.311,-9.307],[-42.619,-9.566],[-43.449,-9.302],[-43.811,-9.428],[-43.681,-9.802],[-43.704,-10.035],[-43.913,-10.432],[-44.217,-10.628],[-44.539,-10.628],[-44.784,-10.856],[-45.043,-10.896],[-45.315,-10.78],[-45.605,-10.334],[-45.757,-10.329],[-46.302,-10.758],[-46.57,-11.316],[-46.079,-11.928],[-46.338,-12.128],[-46.315,-12.423],[-46.159,-12.503],[-46.235,-12.798],[-46.088,-12.914],[-46.271,-13.655],[-46.128,-14.182],[-45.922,-14.352],[-45.913,-14.691],[-46.025,-14.869]]]},"properties":{"code":"BR-BA","name":"Bahia","country":"BRA"}},
{"type":"Feature","geometry":{"type":"Polygon","coordinates":[[[-40.538,-7.392],[-39.654,-7.374],[-38.967,-7.847],[-38.699,-7.619],[-38.534,-7.294],[-38.726,-6.892],[-38.525,-6.383],[-38.414,-6.061],[-38.128,-5.878],[-37.721,-5.061],[-37.231,-4.824],[-37.626,-4.592],[-38.049,-4.216],[-38.476,-3.717],[-39.965,-2.862],[-40.475,-2.796],[-41.269,-2.916],[-41.449,-3.436],[-41.074,-4.325],[-41.235,-4.539],[-41.186,-4.914],[-40.949,-5.418],[-40.891,-6.012],[-40.708,-6.66],[-40.418,-6.811],[-40.583,-7.195],[-40.538,-7.392]]]},"properties":{"code":"BR-CE","name":"Ceará","country":"BRA"}},
{"type":"Feature","geometry":{"type":"Polygon","coordinates":[[[-37.412,-11.497],[-36.938,-10.821],[-36.415,-10.491],[-36.88,-10.154],[-37.019,-9.957],[-37.976,-9.512],[-37.963,-9.874],[-37.78,-10.079],[-37.815,-10.677],[-38.19,-10.718],[-38.235,-10.896],[-37.797,-11.526],[-37.412,-11.497]]]},"properties":{"code":"BR-SE","name":"Sergipe","country":"BRA"}},
{"type":"Feature","geometry":{"type":"Polygon","coordinates":[[[-37.976,-9.512],[-37.019,-9.957],[-36.88,-10.154],[-36.415,-10.491],[-35.341,-9.231],[-35.152,-8.914],[-35.471,-8.834],[-36.016,-8.896],[-36.346,-9.2],[-36.579,-9.293],[-37.181,-9.24],[-37.521,-8.945],[-37.815,-8.977],[-38.221,-9.348],[-37.976,-9.512]]]},"properties":{"code":"BR-AL","name":"Alagoas","country":"BRA"}},
{"type":"Feature","geometry":{"type":"Polygon","coordinates":[[[-38.525,-6.383],[-38.132,-6.521],[-37.757,-6.177],[-37.262,-6.026],[-37.177,-6.115],[-37.507,-6.552],[-37.217,-6.825],[-36.503,-6.785],[-36.494,-6.378],[-35.927,-6.468],[-35.668,-6.427],[-35.306,-6.53],[-34.972,-6.504],[-35.235,-5.567],[-35.549,-5.129],[-35.98,-5.054],[-36.591,-5.098],[-37.231,-4.824],[-37.721,-5.061],[-38.128,-5.878],[-38.414,-6.061],[-38.525,-6.383]]]},"properties":{"code":"BR-RN","name":"Rio Grande do Norte","country":"BRA"}},
{"type":"Feature","geometry":{"type":"Polygon","coordinates":[[[-41.369,-8.713],[-40.891,-8.856],[-40.851,-9.151],[-40.686,-9.472],[-40.413,-9.397],[-40.273,-9.145],[-39.949,-9.022],[-39.835,-8.809],[-39.442,-8.559],[-38.336,-9.01],[-38.221,-9.348],[-37.815,-8.977],[-37.521,-8.945],[-37.181,-9.24],[-36.579,-9.293],[-36.346,-9.2],[-36.016,-8.896],[-35.471,-8.834],[-35.152,-8.914],[-34.835,-7.972],[-34.859,-7.55],[-35.065,-7.41],[-35.498,-7.454],[-35.556,-7.655],[-35.967,-7.816],[-36.422,-7.825],[-36.628,-8.084],[-36.963,-8.285],[-37.128,-8.164],[-37.253,-7.271],[-37.436,-7.347],[-37.976,-7.771],[-38.226,-7.811],[-38.699,-7.619],[-38.967,-7.847],[-39.654,-7.374],[-40.538,-7.392],[-40.69,-7.428],[-40.547,-7.834],[-40.592,-8.124],[-40.922,-8.432],[-41.369,-8.713]]]},"properties":{"code":"BR-PE","name":"Pernambuco","country":"BRA"}},
{"type":"Feature","geometry":{"type":"Polygon","coordinates":[[[-38.699,-7.619],[-38.226,-7.811],[-37.976,-7.771],[-37.436,-7.347],[-37.253,-7.271],[-37.128,-8.164],[-36.963,-8.285],[-36.628,-8.084],[-36.422,-7.825],[-35.967,-7.816],[-35.556,-7.655],[-35.498,-7.454],[-35.065,-7.41],[-34.859,-7.55],[-34.834,-7.024],[-34.972,-6.504],[-35.306,-6.53],[-35.668,-6.427],[-35.927,-6.468],[-36.494,-6.378],[-36.503,-6.785],[-37.217,-6.825],[-37.507,-6.552],[-37.177,-6.115],[-37.262,-6.026],[-37.757,-6.177],[-38.132,-6.521],[-38.525,-6.383],[-38.726,-6.892],[-38.534,-7.294],[-38.699,-7.619]]]},"properties":{"code":"BR-PB","name":"Paraíba","country":"BRA"}},
{"type":"Feature","geometry":{"type":"Polygon","coordinates":[[[-53.67,-26.258],[-53.717,-26.883],[-53.935,-27.161],[-53.457,-27.103],[-53.03,-27.138],[-52.636,-27.259],[-52.139,-27.283],[-51.873,-27.509],[-51.488,-27.564],[-50.966,-27.959],[-50.578,-28.386],[-49.708,-28.53],[-49.954,-28.794],[-50.007,-29.102],[-49.713,-29.325],[-49.271,-28.871],[-48.8,-28.575],[-48.621,-28.076],[-48.643,-27.558],[-48.554,-27.196],[-48.678,-26.703],[-48.585,-25.986],[-49.11,-25.995],[-49.597,-26.222],[-49.949,-26.012],[-50.646,-26.07],[-50.735,-26.231],[-51.074,-26.236],[-51.289,-26.423],[-51.239,-26.606],[-52.007,-26.584],[-52.199,-26.45],[-52.815,-26.338],[-53.123,-26.37],[-53.355,-26.24],[-53.67,-26.258]]]},"properties":{"code":"BR-SC","name":"Santa Catarina","country":"BRA"}},
{"type":"Feature","geometry":{"type":"Polygon","coordinates":[[[-53.935,-27.161],[-54.327,-27.424],[-54.829,-27.551],[-55.102,-27.867],[-55.726,-28.204],[-56.322,-28.852],[-56.772,-29.418],[-57.225,-29.782],[-57.552,-30.261],[-57.214,-30.283],[-56.833,-30.107],[-56.176,-30.628],[-55.874,-31.07],[-55.557,-30.876],[-55.255,-31.226],[-54.588,-31.485],[-54.22,-31.855],[-53.762,-32.057],[-53.602,-32.403],[-53.126,-32.737],[-53.531,-33.171],[-53.538,-33.623],[-53.371,-33.742],[-52.652,-33.138],[-52.342,-32.44],[-52.127,-32.168],[-52.193,-31.885],[-51.973,-31.384],[-51.464,-31.053],[-51.359,-30.675],[-51.157,-30.364],[-50.716,-30.426],[-50.689,-30.704],[-51.161,-31.119],[-51.152,-31.48],[-50.62,-30.898],[-50.299,-30.426],[-50.033,-29.801],[-49.713,-29.325],[-50.007,-29.102],[-49.954,-28.794],[-49.708,-28.53],[-50.578,-28.386],[-50.966,-27.959],[-51.488,-27.564],[-51.873,-27.509],[-52.139,-27.283],[-52.636,-27.259],[-53.03,-27.138],[-53.457,-27.103],[-53.935,-27.161]]]},"properties":{"code":"BR-RS","name":"Rio Grande do Sul","country":"BRA"}}
]}